Address_ID,Address_1,Country,State,City,Zip
1,823 High Crossing Place,United States,Alabama,Birmingham,35220
2,812 Mccormick Park,United States,Alabama,Anniston,36205
3,1 Pepper Wood Circle,United States,Alabama,Huntsville,35805
4,2 Superior Center,United States,Alabama,Birmingham,35295
5,2 Randy Terrace,United States,Alabama,Tuscaloosa,35405
6,8 Jay Terrace,United States,Alabama,Montgomery,36125
7,2576 Longview Junction,United States,Alabama,Birmingham,35242
8,3 Melby Pass,United States,Alabama,Birmingham,35231
9,5 Randy Place,United States,Alabama,Huntsville,35895
10,8 Hollow Ridge Pass,United States,Alabama,Huntsville,35810
11,92711 Forster Center,United States,Alabama,Mobile,36628
12,426 Bunker Hill Circle,United States,Alabama,Huntsville,35810
13,202 Ridgeway Alley,United States,Alabama,Birmingham,35254
14,6607 Cambridge Lane,United States,Alabama,Gadsden,35905
15,64 Kedzie Way,United States,Alabama,Huntsville,35810
16,1546 Melody Trail,United States,Alabama,Birmingham,35215
17,236 Muir Terrace,United States,Alabama,Montgomery,36134
18,653 Ronald Regan Hill,United States,Alabama,Birmingham,35279
19,8 Golden Leaf Street,United States,Alabama,Mobile,36641
20,49144 Lake View Hill,United States,Alabama,Birmingham,35290
21,956 Oneill Alley,United States,Alabama,Huntsville,35810
22,9 Lindbergh Place,United States,Alabama,Mobile,36610
23,491 Briar Crest Park,United States,Alabama,Birmingham,35244
24,474 Morningstar Plaza,United States,Alabama,Mobile,36610
25,73 Mallard Terrace,United States,Alabama,Mobile,36616
26,5 Fair Oaks Circle,United States,Alabama,Tuscaloosa,35487
27,63 Northwestern Center,United States,Alabama,Mobile,36610
28,0 Declaration Alley,United States,Alabama,Mobile,36616
29,45225 Park Meadow Way,United States,Alabama,Huntsville,35810
30,6 Granby Court,United States,Alabama,Birmingham,35279
31,309 Sunnyside Point,United States,Alabama,Gadsden,35905
32,385 Jay Lane,United States,Alabama,Montgomery,36114
33,46854 Susan Drive,United States,Alabama,Mobile,36670
34,273 Larry Junction,United States,Alabama,Birmingham,35263
35,15175 Thackeray Place,United States,Alabama,Huntsville,35815
36,72297 Pierstorff Center,United States,Alabama,Mobile,36628
37,82301 Center Terrace,United States,Alabama,Birmingham,35254
38,1 Goodland Court,United States,Alabama,Birmingham,35205
39,283 Kingsford Lane,United States,Alabama,Huntsville,35805
40,9 Stuart Drive,United States,Alabama,Montgomery,36134
41,028 Mccormick Avenue,United States,Alabama,Birmingham,35236
42,0 West Way,United States,Alabama,Montgomery,36119
43,8357 Thackeray Drive,United States,Alabama,Birmingham,35285
44,596 Hooker Crossing,United States,Alabama,Huntsville,35810
45,1611 Ridgeview Parkway,United States,Alabama,Mobile,36616
46,73496 Lindbergh Circle,United States,Alabama,Montgomery,36195
47,3236 Toban Parkway,United States,Alabama,Birmingham,35254
48,78648 Cardinal Circle,United States,Alabama,Birmingham,35236
49,5 Corry Drive,United States,Alabama,Birmingham,35220
50,48 Garrison Avenue,United States,Alabama,Birmingham,35242
51,2 Namekagon Avenue,United States,Alabama,Montgomery,36109
52,898 Mcguire Avenue,United States,Alabama,Tuscaloosa,35405
53,2 Chinook Road,United States,Alabama,Birmingham,35210
54,110 Farmco Circle,United States,Alabama,Birmingham,35254
55,3 Oak Road,United States,Alabama,Montgomery,36114
56,41001 West Trail,United States,Alabama,Anniston,36205
57,03 Esker Way,United States,Alabama,Huntsville,35815
58,3 Brentwood Way,United States,Alabama,Tuscaloosa,35487
59,3 Bartillon Parkway,United States,Alabama,Birmingham,35279
60,359 Schiller Point,United States,Alabama,Birmingham,35290
61,0 Anniversary Alley,United States,Alabama,Birmingham,35254
62,157 Village Green Park,United States,Alabama,Montgomery,36104
63,241 Northport Hill,United States,Alabama,Montgomery,36119
64,8 Upham Court,United States,Alabama,Mobile,36605
65,621 Manufacturers Court,United States,Alabama,Gadsden,35905
66,9321 Paget Terrace,United States,Alabama,Birmingham,35254
67,7 Dryden Plaza,United States,Alabama,Birmingham,35254
68,1 Gateway Parkway,United States,Alabama,Birmingham,35210
69,12 Columbus Crossing,United States,Alabama,Anniston,36205
70,2842 Commercial Pass,United States,Alabama,Tuscaloosa,35405
71,3455 Rigney Place,United States,Alabama,Mobile,36610
72,785 Dovetail Crossing,United States,Alabama,Huntsville,35895
73,9 Stuart Way,United States,Alabama,Birmingham,35231
74,4140 Pawling Junction,United States,Alabama,Tuscaloosa,35405
75,637 Colorado Drive,United States,Alabama,Montgomery,36114
76,278 Hanson Court,United States,Alabama,Mobile,36689
77,83060 Farragut Hill,United States,Alabama,Huntsville,35895
78,0 Oak Circle,United States,Alabama,Huntsville,35810
79,86 Scott Crossing,United States,Alabama,Birmingham,35220
80,73386 Burning Wood Hill,United States,Alabama,Montgomery,36104
81,05606 Schlimgen Park,United States,Alabama,Birmingham,35244
82,91 Mendota Center,United States,Alabama,Birmingham,35295
83,3 Hovde Circle,United States,Alabama,Birmingham,35279
84,5806 International Circle,United States,Alabama,Birmingham,35242
85,818 Hovde Lane,United States,Alabama,Mobile,36616
86,54 Ridge Oak Alley,United States,Alabama,Birmingham,35231
87,9 Kim Court,United States,Alabama,Tuscaloosa,35405
88,6 Crownhardt Junction,United States,Alabama,Birmingham,35220
89,72074 Esch Circle,United States,Alabama,Montgomery,36134
90,23364 Brown Plaza,United States,Alabama,Mobile,36622
91,188 4th Parkway,United States,Alabama,Mobile,36628
92,79320 Browning Court,United States,Alabama,Huntsville,35805
93,74 Jackson Drive,United States,Alabama,Tuscaloosa,35487
94,3 Anniversary Road,United States,Alabama,Montgomery,36109
95,049 Derek Avenue,United States,Alabama,Montgomery,36134
96,19336 Center Pass,United States,Alabama,Mobile,36616
97,4754 Glacier Hill Way,United States,Alabama,Mobile,36610
98,1 Westridge Lane,United States,Alabama,Tuscaloosa,35405
99,9986 Crownhardt Court,United States,Alabama,Mobile,36641
100,474 Nobel Park,United States,Alabama,Mobile,36628
101,22659 Fairview Road,United States,Alabama,Birmingham,35279
102,3 Valley Edge Terrace,United States,Alabama,Montgomery,36119
103,74066 Marquette Junction,United States,Alabama,Mobile,36670
104,87935 Anzinger Court,United States,Alabama,Mobile,36641
105,3 Spaight Way,United States,Alabama,Birmingham,35244
106,1 Forest Dale Trail,United States,Alabama,Birmingham,35210
107,70643 Manitowish Junction,United States,Alabama,Montgomery,36104
108,9 Aberg Lane,United States,Alabama,Birmingham,35225
109,278 Dahle Point,United States,Alabama,Birmingham,35295
110,46 5th Terrace,United States,Alabama,Birmingham,35254
111,0804 Hoard Park,United States,Alabama,Gadsden,35905
112,09 Morrow Lane,United States,Alabama,Montgomery,36104
113,81234 Delaware Point,United States,Alabama,Birmingham,35279
114,792 Corben Parkway,United States,Alabama,Montgomery,36109
115,54338 Butternut Parkway,United States,Alabama,Birmingham,35205
116,0722 Cambridge Court,United States,Alabama,Birmingham,35279
117,20077 American Trail,United States,Alabama,Montgomery,36109
118,212 Lawn Court,United States,Alabama,Huntsville,35815
119,940 Blackbird Circle,United States,Alabama,Tuscaloosa,35487
120,5 Reinke Point,United States,Alabama,Tuscaloosa,35405
121,04 Crest Line Road,United States,Alabama,Gadsden,35905
122,60 Barnett Alley,United States,Alabama,Birmingham,35236
123,81 8th Trail,United States,Alabama,Montgomery,36109
124,1729 Ryan Center,United States,Alabama,Birmingham,35244
125,8 Garrison Street,United States,Alabama,Birmingham,35215
126,2682 Mariners Cove Drive,United States,Alabama,Birmingham,35210
127,4404 Heffernan Street,United States,Alabama,Birmingham,35231
128,8814 Lunder Park,United States,Alabama,Mobile,36628
129,5686 Gateway Court,United States,Alabama,Montgomery,36125
130,8438 Dixon Way,United States,Alabama,Birmingham,35290
131,25885 Fisk Crossing,United States,Alabama,Mobile,36628
132,68 Grover Road,United States,Alabama,Mobile,36628
133,23 Mallory Crossing,United States,Alabama,Birmingham,35225
134,2 Mesta Park,United States,Alabama,Huntsville,35805
135,9712 Waubesa Circle,United States,Alabama,Birmingham,35205
136,9 Gateway Parkway,United States,Alabama,Birmingham,35290
137,4172 Prairie Rose Court,United States,Alabama,Montgomery,36177
138,561 Buell Court,United States,Alabama,Birmingham,35220
139,3589 Melvin Hill,United States,Alabama,Birmingham,35236
140,6954 Mayfield Center,United States,Alabama,Birmingham,35279
141,4 3rd Road,United States,Alabama,Birmingham,35290
142,2 Sutteridge Center,United States,Alabama,Mobile,36689
143,719 Norway Maple Road,United States,Alabama,Huntsville,35815
144,076 Summerview Way,United States,Alabama,Birmingham,35236
145,425 Heffernan Court,United States,Alabama,Montgomery,36119
146,672 Elmside Lane,United States,Alabama,Birmingham,35279
147,5 Anthes Alley,United States,Alabama,Montgomery,36195
148,94185 Eggendart Crossing,United States,Alabama,Montgomery,36134
149,96 3rd Circle,United States,Alabama,Birmingham,35244
150,963 Gale Hill,United States,Alabama,Montgomery,36134
151,1 Fair Oaks Place,United States,Alabama,Mobile,36670
152,5 Menomonie Street,United States,Alabama,Huntsville,35805
153,29438 Dryden Road,United States,Alabama,Birmingham,35215
154,6 Atwood Trail,United States,Alabama,Mobile,36605
155,72 Northfield Crossing,United States,Alabama,Birmingham,35290
156,5 Surrey Lane,United States,Alabama,Birmingham,35205
157,06 Riverside Center,United States,Alabama,Montgomery,36125
158,54021 Sycamore Road,United States,Alabama,Tuscaloosa,35405
159,84 Longview Alley,United States,Alabama,Huntsville,35815
160,94 Victoria Junction,United States,Alabama,Birmingham,35205
161,601 Orin Road,United States,Alabama,Birmingham,35231
162,51790 Lakewood Gardens Lane,United States,Alabama,Montgomery,36195
163,817 Ruskin Street,United States,Alabama,Huntsville,35815
164,96 Hazelcrest Terrace,United States,Alabama,Gadsden,35905
165,984 Clemons Circle,United States,Alabama,Mobile,36610
166,377 Sutherland Plaza,United States,Alabama,Montgomery,36125
167,26 Basil Pass,United States,Alabama,Birmingham,35231
168,24397 Charing Cross Street,United States,Alabama,Birmingham,35285
169,8 Dunning Terrace,United States,Alabama,Birmingham,35210
170,6 Mayfield Junction,United States,Alabama,Huntsville,35895
171,95512 Merchant Pass,United States,Alabama,Birmingham,35220
172,9 Northfield Way,United States,Alabama,Birmingham,35215
173,2688 Roth Point,United States,Alabama,Montgomery,36109
174,5 Beilfuss Terrace,United States,Alabama,Birmingham,35263
175,77 Vermont Place,United States,Alabama,Birmingham,35263
176,448 Hallows Drive,United States,Alabama,Montgomery,36134
177,14526 Rowland Point,United States,Alabama,Mobile,36622
178,6 Schurz Drive,United States,Alabama,Montgomery,36125
179,48 Sloan Center,United States,Alabama,Mobile,36628
180,15 Birchwood Park,United States,Alabama,Montgomery,36104
181,98504 Muir Road,United States,Alabama,Mobile,36605
182,53 Eagan Terrace,United States,Alabama,Mobile,36641
183,70 Ridgeview Way,United States,Alabama,Mobile,36610
184,475 Westport Way,United States,Alabama,Montgomery,36177
185,8330 Onsgard Junction,United States,Alabama,Birmingham,35242
186,3670 Annamark Street,United States,Alabama,Mobile,36628
187,80580 Mallory Lane,United States,Alabama,Mobile,36670
188,232 Drewry Road,United States,Alabama,Montgomery,36195
189,2120 Tennessee Center,United States,Alabama,Birmingham,35295
190,52 Bunker Hill Way,United States,Alabama,Huntsville,35805
191,46 Swallow Pass,United States,Alabama,Mobile,36622
192,6452 Hauk Road,United States,Alabama,Birmingham,35263
193,2 Melrose Circle,United States,Alabama,Birmingham,35254
194,041 Jenna Hill,United States,Alabama,Birmingham,35254
195,49 Vernon Plaza,United States,Alabama,Birmingham,35210
196,2880 Chinook Crossing,United States,Alabama,Birmingham,35225
197,6443 Coleman Trail,United States,Alabama,Montgomery,36195
198,06 Mitchell Place,United States,Alabama,Montgomery,36109
199,53 Vernon Circle,United States,Alabama,Tuscaloosa,35487
200,4390 Longview Circle,United States,Alabama,Huntsville,35895
201,8 Oriole Terrace,United States,Alabama,Montgomery,36177
202,542 Hovde Plaza,United States,Alabama,Mobile,36610
203,13 Harbort Terrace,United States,Alabama,Mobile,36689
204,54691 Oxford Center,United States,Alabama,Birmingham,35225
205,5722 Stone Corner Terrace,United States,Alabama,Mobile,36605
206,7926 Red Cloud Drive,United States,Alabama,Montgomery,36125
207,4745 Beilfuss Avenue,United States,Alabama,Birmingham,35225
208,6239 Calypso Alley,United States,Alabama,Birmingham,35295
209,7 Iowa Court,United States,Alabama,Birmingham,35254
210,7 Esker Court,United States,Alabama,Montgomery,36119
211,17592 Bay Junction,United States,Alabama,Birmingham,35210
212,618 Hoard Center,United States,Alabama,Tuscaloosa,35487
213,64999 Mallory Crossing,United States,Alabama,Mobile,36689
214,8 Northfield Street,United States,Alabama,Mobile,36605
215,3352 Pine View Plaza,United States,Alabama,Mobile,36628
216,9 Schmedeman Drive,United States,Alabama,Montgomery,36119
217,33202 Oxford Place,United States,Alabama,Birmingham,35295
218,837 Vermont Lane,United States,Alabama,Birmingham,35244
219,23 Glendale Crossing,United States,Alabama,Birmingham,35231
220,871 Eagan Plaza,United States,Alabama,Birmingham,35290
221,719 Fairfield Road,United States,Alabama,Birmingham,35254
222,5983 Fieldstone Crossing,United States,Alabama,Montgomery,36109
223,3806 Trailsway Terrace,United States,Alabama,Mobile,36622
224,3 Lyons Way,United States,Alabama,Birmingham,35242
225,29060 Gina Point,United States,Alabama,Huntsville,35815
226,3344 Butternut Way,United States,Alabama,Birmingham,35285
227,9126 Merry Terrace,United States,Alabama,Huntsville,35895
228,5112 Sauthoff Circle,United States,Alabama,Birmingham,35285
229,61149 Tony Junction,United States,Alabama,Birmingham,35295
230,79380 Brown Junction,United States,Alabama,Birmingham,35290
231,1 Merchant Avenue,United States,Alabama,Birmingham,35263
232,7 Charing Cross Drive,United States,Alabama,Montgomery,36104
233,89 Kingsford Place,United States,Alabama,Birmingham,35263
234,627 Banding Court,United States,Alabama,Birmingham,35242
235,737 Forest Circle,United States,Alabama,Birmingham,35244
236,2 Hoard Plaza,United States,Alabama,Gadsden,35905
237,65770 Dovetail Lane,United States,Alabama,Birmingham,35295
238,8 Maryland Crossing,United States,Alabama,Birmingham,35225
239,9 Thompson Park,United States,Alabama,Montgomery,36114
240,48046 Anniversary Lane,United States,Alabama,Birmingham,35263
241,6344 Buhler Pass,United States,Alabama,Montgomery,36134
242,7 Del Sol Plaza,United States,Alabama,Montgomery,36195
243,5498 Ramsey Junction,United States,Alabama,Montgomery,36119
244,9 Westridge Point,United States,Alabama,Tuscaloosa,35487
245,3 Ridgeview Center,United States,Alabama,Birmingham,35290
246,935 Northview Place,United States,Alabama,Montgomery,36119
247,1 Sage Plaza,United States,Alabama,Birmingham,35231
248,96447 Spaight Hill,United States,Alabama,Birmingham,35290
249,04202 Red Cloud Place,United States,Alabama,Mobile,36641
250,50095 Laurel Alley,United States,Alabama,Birmingham,35279
251,9836 Canary Avenue,United States,Alabama,Mobile,36605
252,156 Schmedeman Park,United States,Alabama,Montgomery,36119
253,426 Dixon Trail,United States,Alabama,Montgomery,36114
254,7 Schlimgen Center,United States,Alabama,Huntsville,35895
255,19498 Paget Terrace,United States,Alabama,Mobile,36628
256,79882 Lakeland Circle,United States,Alabama,Birmingham,35290
257,9517 Daystar Way,United States,Alabama,Huntsville,35895
258,78 Annamark Hill,United States,Alabama,Birmingham,35231
259,01 Moulton Drive,United States,Alabama,Montgomery,36114
260,85 Schmedeman Park,United States,Alabama,Tuscaloosa,35405
261,3375 Melrose Pass,United States,Alabama,Birmingham,35263
262,2 Bashford Trail,United States,Alabama,Montgomery,36104
263,80526 Valley Edge Avenue,United States,Alabama,Mobile,36605
264,0321 Bonner Plaza,United States,Alabama,Montgomery,36125
265,15606 Steensland Plaza,United States,Alabama,Mobile,36622
266,43955 Mcguire Plaza,United States,Alabama,Birmingham,35279
267,387 North Parkway,United States,Alabama,Huntsville,35895
268,648 Corscot Court,United States,Alabama,Mobile,36689
269,4 Debs Court,United States,Alabama,Montgomery,36134
270,9450 Brentwood Circle,United States,Alabama,Mobile,36622
271,08 Drewry Plaza,United States,Alabama,Tuscaloosa,35487
272,4357 Rigney Terrace,United States,Alabama,Mobile,36628
273,9 Hooker Court,United States,Alabama,Birmingham,35290
274,82992 Annamark Drive,United States,Alabama,Birmingham,35263
275,96 Comanche Way,United States,Alabama,Montgomery,36104
276,7105 Mitchell Terrace,United States,Alabama,Tuscaloosa,35405
277,8 Chinook Parkway,United States,Alabama,Montgomery,36195
278,0189 Pankratz Road,United States,Alabama,Huntsville,35810
279,6 Shopko Alley,United States,Alabama,Huntsville,35805
280,4499 Grasskamp Terrace,United States,Alabama,Mobile,36616
281,5 Pierstorff Street,United States,Alabama,Birmingham,35244
282,7352 Kings Pass,United States,Alabama,Birmingham,35236
283,6765 Colorado Terrace,United States,Alabama,Birmingham,35279
284,7177 Pennsylvania Hill,United States,Alabama,Huntsville,35815
285,0493 Coolidge Avenue,United States,Alabama,Tuscaloosa,35405
286,06063 Longview Alley,United States,Alabama,Huntsville,35805
287,30 Mcguire Terrace,United States,Alabama,Anniston,36205
288,5717 Manitowish Center,United States,Alabama,Gadsden,35905
289,82 Emmet Avenue,United States,Alabama,Birmingham,35225
290,904 Dexter Trail,United States,Alabama,Birmingham,35244
291,3 Huxley Alley,United States,Alabama,Birmingham,35244
292,2 Hagan Junction,United States,Alabama,Birmingham,35215
293,7 Lakewood Gardens Court,United States,Alabama,Montgomery,36104
294,53910 Debs Crossing,United States,Alabama,Montgomery,36125
295,0 Dryden Terrace,United States,Alabama,Montgomery,36109
296,07225 Oriole Road,United States,Alabama,Montgomery,36125
297,8 Pennsylvania Lane,United States,Alabama,Birmingham,35231
298,21 Manley Way,United States,Alabama,Mobile,36605
299,98 Center Court,United States,Alabama,Gadsden,35905
300,566 Columbus Alley,United States,Alabama,Montgomery,36104
301,395 Grim Trail,United States,Alabama,Huntsville,35810
302,775 Jenna Plaza,United States,Alabama,Mobile,36616
303,2982 Reindahl Center,United States,Alabama,Birmingham,35225
304,997 Clove Avenue,United States,Alabama,Mobile,36616
305,32 Marcy Place,United States,Alabama,Birmingham,35220
306,14254 Ridgeway Place,United States,Alabama,Birmingham,35263
307,94 Del Sol Avenue,United States,Alabama,Birmingham,35215
308,3825 Shoshone Way,United States,Alabama,Gadsden,35905
309,580 Reinke Point,United States,Alabama,Mobile,36622
310,43023 Badeau Circle,United States,Alabama,Huntsville,35805
311,16343 Ohio Trail,United States,Alabama,Montgomery,36134
312,04 Grim Avenue,United States,Alabama,Birmingham,35295
313,004 Forest Run Alley,United States,Alabama,Huntsville,35815
314,91 Arrowood Parkway,United States,Alabama,Birmingham,35295
315,57779 Roth Pass,United States,Alabama,Mobile,36616
316,54 Del Mar Parkway,United States,Alabama,Birmingham,35242
317,19465 Hanson Center,United States,Alabama,Gadsden,35905
318,2725 Brown Trail,United States,Alabama,Birmingham,35285
319,613 Upham Park,United States,Alabama,Montgomery,36195
320,2415 Upham Street,United States,Alabama,Huntsville,35805
321,74 3rd Crossing,United States,Alabama,Tuscaloosa,35487
322,21811 Village Center,United States,Alabama,Gadsden,35905
323,7 Eastwood Street,United States,Alabama,Birmingham,35220
324,087 Anthes Plaza,United States,Alabama,Tuscaloosa,35487
325,115 Cottonwood Plaza,United States,Alabama,Montgomery,36125
326,225 Tony Hill,United States,Alabama,Birmingham,35290
327,2261 Namekagon Drive,United States,Alabama,Birmingham,35263
328,684 Tennessee Junction,United States,Alabama,Montgomery,36119
329,64765 Sundown Avenue,United States,Alabama,Mobile,36622
330,114 Petterle Road,United States,Alabama,Mobile,36628
331,21 Bartelt Pass,United States,Alabama,Mobile,36610
332,3008 Stang Terrace,United States,Alabama,Huntsville,35815
333,2 Superior Avenue,United States,Alabama,Mobile,36641
334,0393 Ryan Circle,United States,Alabama,Birmingham,35279
335,31946 Heffernan Parkway,United States,Alabama,Huntsville,35805
336,84 Ryan Park,United States,Alabama,Mobile,36670
337,23229 Village Green Place,United States,Alabama,Birmingham,35236
338,37367 Westport Junction,United States,Alabama,Mobile,36616
339,3 Caliangt Point,United States,Alabama,Tuscaloosa,35487
340,54 Warbler Place,United States,Alabama,Montgomery,36125
341,69388 Mayfield Park,United States,Alabama,Birmingham,35242
342,9 Ruskin Circle,United States,Alabama,Birmingham,35215
343,21186 Magdeline Center,United States,Alabama,Huntsville,35815
344,31520 Morning Drive,United States,Alabama,Birmingham,35242
345,08266 Canary Junction,United States,Alabama,Birmingham,35210
346,931 Golf Hill,United States,Alabama,Birmingham,35236
347,88286 Killdeer Street,United States,Alabama,Birmingham,35279
348,79 Mallory Court,United States,Alabama,Montgomery,36109
349,0398 Troy Lane,United States,Alabama,Mobile,36622
350,4511 Kings Crossing,United States,Alabama,Birmingham,35290
351,50 Havey Point,United States,Alabama,Mobile,36628
352,0 Mallory Trail,United States,Alabama,Mobile,36622
353,60 Bonner Place,United States,Alabama,Mobile,36689
354,3886 Anthes Terrace,United States,Alabama,Tuscaloosa,35405
355,58998 Warner Crossing,United States,Alabama,Birmingham,35244
356,31 Grasskamp Crossing,United States,Alabama,Birmingham,35254
357,4177 Scoville Place,United States,Alabama,Mobile,36616
358,19341 Dayton Trail,United States,Alabama,Huntsville,35810
359,11 Larry Plaza,United States,Alabama,Gadsden,35905
360,9 Loeprich Hill,United States,Alabama,Birmingham,35225
361,9645 Orin Junction,United States,Alabama,Mobile,36641
362,65 Elka Point,United States,Alabama,Birmingham,35242
363,2 Hudson Plaza,United States,Alabama,Birmingham,35290
364,28 Quincy Terrace,United States,Alabama,Mobile,36628
365,880 Maple Street,United States,Alabama,Tuscaloosa,35487
366,81567 Melby Street,United States,Alabama,Mobile,36622
367,2 Russell Terrace,United States,Alabama,Birmingham,35225
368,772 New Castle Road,United States,Alabama,Huntsville,35810
369,02 Mifflin Lane,United States,Alabama,Mobile,36670
370,6 Lake View Junction,United States,Alabama,Birmingham,35295
371,85067 Green Ridge Hill,United States,Alabama,Mobile,36610
372,48969 Holy Cross Pass,United States,Alabama,Mobile,36605
373,83 Lakewood Gardens Place,United States,Alabama,Birmingham,35215
374,02502 Haas Court,United States,Alabama,Gadsden,35905
375,46 Hudson Terrace,United States,Alabama,Mobile,36616
376,64868 Rockefeller Junction,United States,Alabama,Mobile,36670
377,1 Porter Crossing,United States,Alabama,Birmingham,35210
378,9010 Longview Avenue,United States,Alabama,Huntsville,35810
379,59665 Arkansas Court,United States,Alabama,Montgomery,36109
380,867 3rd Circle,United States,Alabama,Mobile,36670
381,7689 Pennsylvania Point,United States,Alabama,Huntsville,35895
382,27194 Kenwood Avenue,United States,Alabama,Birmingham,35236
383,59 Parkside Pass,United States,Alabama,Montgomery,36109
384,68635 Gulseth Road,United States,Alabama,Huntsville,35895
385,18934 Stephen Place,United States,Alabama,Birmingham,35231
386,32369 Sutteridge Lane,United States,Alabama,Montgomery,36104
387,7034 Mendota Trail,United States,Alabama,Birmingham,35220
388,1933 Butternut Trail,United States,Alabama,Montgomery,36104
389,59076 Farragut Plaza,United States,Alabama,Gadsden,35905
390,704 Judy Pass,United States,Alabama,Mobile,36628
391,184 Stoughton Trail,United States,Alabama,Mobile,36628
392,44 Scofield Plaza,United States,Alabama,Birmingham,35285
393,891 Vernon Center,United States,Alabama,Birmingham,35242
394,87364 Trailsway Point,United States,Alabama,Birmingham,35205
395,29 Northview Hill,United States,Alabama,Montgomery,36114
396,071 Old Gate Parkway,United States,Alabama,Montgomery,36195
397,40 Redwing Hill,United States,Alabama,Montgomery,36125
398,67830 Waubesa Place,United States,Alabama,Birmingham,35225
399,0 Canary Center,United States,Alabama,Montgomery,36119
400,045 Delladonna Crossing,United States,Alabama,Birmingham,35263
401,62 Norway Maple Terrace,United States,Alabama,Montgomery,36134
402,68 Valley Edge Pass,United States,Alabama,Montgomery,36134
403,3 2nd Way,United States,Alabama,Birmingham,35244
404,359 Randy Road,United States,Alabama,Montgomery,36109
405,7 High Crossing Road,United States,Alabama,Mobile,36616
406,5 Trailsway Terrace,United States,Alabama,Gadsden,35905
407,35109 Oakridge Way,United States,Alabama,Montgomery,36134
408,01 Monica Road,United States,Alabama,Birmingham,35290
409,53499 Schlimgen Point,United States,Alabama,Birmingham,35210
410,1636 Butterfield Center,United States,Alabama,Montgomery,36119
411,569 Mifflin Crossing,United States,Alabama,Birmingham,35231
412,39442 Glendale Circle,United States,Alabama,Birmingham,35210
413,176 Sheridan Junction,United States,Alabama,Huntsville,35810
414,83895 School Point,United States,Alabama,Birmingham,35279
415,2 Briar Crest Alley,United States,Alabama,Huntsville,35805
416,35 Cherokee Place,United States,Alabama,Birmingham,35244
417,935 Loftsgordon Plaza,United States,Alabama,Birmingham,35295
418,873 Dovetail Alley,United States,Alabama,Montgomery,36104
419,58 Lien Drive,United States,Alabama,Birmingham,35290
420,5900 Mendota Hill,United States,Alabama,Mobile,36670
421,29038 Manitowish Center,United States,Alabama,Montgomery,36134
422,070 Loeprich Street,United States,Alabama,Mobile,36616
423,3 Dwight Court,United States,Alabama,Tuscaloosa,35405
424,84 Tennyson Center,United States,Alabama,Birmingham,35236
425,781 High Crossing Junction,United States,Alabama,Birmingham,35205
426,88386 Shopko Trail,United States,Alabama,Birmingham,35225
427,1277 Loftsgordon Street,United States,Alabama,Huntsville,35895
428,1306 Arapahoe Lane,United States,Alabama,Birmingham,35236
429,14346 Columbus Avenue,United States,Alabama,Tuscaloosa,35405
430,123 Independence Avenue,United States,Alabama,Montgomery,36109
431,92321 Fairfield Circle,United States,Alabama,Montgomery,36125
432,2 Monument Parkway,United States,Alabama,Mobile,36616
433,93702 Glendale Terrace,United States,Alabama,Montgomery,36119
434,88069 Oriole Point,United States,Alabama,Birmingham,35290
435,4 Bartillon Alley,United States,Alabama,Birmingham,35236
436,14 Lien Place,United States,Alabama,Birmingham,35285
437,810 Tomscot Court,United States,Alabama,Huntsville,35815
438,1193 Manufacturers Plaza,United States,Alabama,Birmingham,35215
439,84 Stoughton Circle,United States,Alabama,Birmingham,35231
440,7591 Lake View Avenue,United States,Alabama,Gadsden,35905
441,6536 Village Green Road,United States,Alabama,Mobile,36610
442,8079 Calypso Way,United States,Alabama,Birmingham,35231
443,0395 Golf Junction,United States,Alabama,Tuscaloosa,35487
444,15935 Mcbride Parkway,United States,Alabama,Birmingham,35279
445,17 Fisk Plaza,United States,Alabama,Mobile,36605
446,2 Lotheville Alley,United States,Alabama,Mobile,36689
447,232 Sloan Trail,United States,Alabama,Montgomery,36114
448,29 Norway Maple Center,United States,Alabama,Montgomery,36177
449,042 Warner Place,United States,Alabama,Montgomery,36109
450,93 Jana Parkway,United States,Alabama,Huntsville,35810
451,5 Bonner Trail,United States,Alabama,Birmingham,35295
452,2656 Larry Terrace,United States,Alabama,Mobile,36641
453,3058 Crowley Parkway,United States,Alabama,Huntsville,35895
454,9759 Sunfield Point,United States,Alabama,Birmingham,35285
455,6320 Garrison Crossing,United States,Alabama,Birmingham,35225
456,301 Stang Trail,United States,Alabama,Montgomery,36195
457,32868 South Alley,United States,Alabama,Mobile,36622
458,02 Hagan Parkway,United States,Alabama,Mobile,36641
459,4 Veith Trail,United States,Alabama,Anniston,36205
460,725 Calypso Lane,United States,Alabama,Mobile,36616
461,11 Debra Alley,United States,Alabama,Birmingham,35285
462,159 Little Fleur Lane,United States,Alabama,Mobile,36622
463,8 Schlimgen Park,United States,Alabama,Huntsville,35815
464,073 Roxbury Drive,United States,Alabama,Huntsville,35815
465,1 Fairview Avenue,United States,Alabama,Birmingham,35263
466,47380 Waxwing Junction,United States,Alabama,Huntsville,35805
467,67 Katie Junction,United States,Alabama,Gadsden,35905
468,609 Granby Crossing,United States,Alabama,Montgomery,36104
469,39 Stuart Pass,United States,Alabama,Birmingham,35205
470,6300 Vermont Center,United States,Alabama,Birmingham,35236
471,50 Miller Crossing,United States,Alabama,Gadsden,35905
472,8585 Rusk Hill,United States,Alabama,Mobile,36689
473,63 Colorado Point,United States,Alabama,Montgomery,36119
474,02 Susan Center,United States,Alabama,Mobile,36616
475,934 Scott Court,United States,Alabama,Montgomery,36109
476,502 Duke Terrace,United States,Alabama,Birmingham,35295
477,47514 Service Park,United States,Alabama,Birmingham,35244
478,63435 Wayridge Park,United States,Alabama,Birmingham,35263
479,60262 Stang Street,United States,Alabama,Huntsville,35805
480,92 Cordelia Place,United States,Alabama,Mobile,36616
481,87 Larry Junction,United States,Alabama,Birmingham,35205
482,6090 Golf View Trail,United States,Alabama,Birmingham,35295
483,9 Hauk Crossing,United States,Alabama,Birmingham,35215
484,11 Ronald Regan Trail,United States,Alabama,Birmingham,35244
485,1646 Hazelcrest Court,United States,Alabama,Tuscaloosa,35487
486,1 Steensland Center,United States,Alabama,Montgomery,36195
487,8143 Eggendart Center,United States,Alabama,Birmingham,35236
488,85 Hagan Lane,United States,Alabama,Huntsville,35805
489,5 Erie Street,United States,Alabama,Birmingham,35290
490,9988 6th Lane,United States,Alabama,Birmingham,35220
491,7 Carberry Terrace,United States,Alabama,Birmingham,35285
492,09884 Northview Point,United States,Alabama,Birmingham,35290
493,28 Barby Hill,United States,Alabama,Montgomery,36114
494,1399 Caliangt Way,United States,Alabama,Mobile,36628
495,33 Shasta Lane,United States,Alabama,Montgomery,36119
496,7736 Eliot Way,United States,Alabama,Tuscaloosa,35487
497,894 Briar Crest Junction,United States,Alabama,Montgomery,36134
498,340 Bluejay Hill,United States,Alabama,Anniston,36205
499,84728 Trailsway Road,United States,Alabama,Huntsville,35810
500,6866 Crowley Court,United States,Alabama,Mobile,36616
501,47811 Barby Drive,United States,Alabama,Birmingham,35263
502,35 Packers Point,United States,Alabama,Tuscaloosa,35487
503,0107 Ramsey Hill,United States,Alabama,Mobile,36670
504,37103 Bashford Junction,United States,Alabama,Montgomery,36195
505,99979 Sommers Crossing,United States,Alabama,Montgomery,36104
506,2 Sunnyside Way,United States,Alabama,Birmingham,35236
507,92544 Canary Plaza,United States,Alabama,Birmingham,35295
508,79 Forest Run Pass,United States,Alabama,Mobile,36670
509,953 Bluejay Court,United States,Alabama,Birmingham,35254
510,4 Continental Road,United States,Alabama,Birmingham,35244
511,4876 Warbler Lane,United States,Alabama,Montgomery,36134
512,38 Lillian Alley,United States,Alabama,Birmingham,35295
513,6 Prentice Circle,United States,Alabama,Tuscaloosa,35405
514,1011 Dawn Circle,United States,Alabama,Mobile,36670
515,824 Carioca Circle,United States,Alabama,Birmingham,35205
516,3925 Oakridge Street,United States,Alabama,Montgomery,36119
517,8432 Longview Junction,United States,Alabama,Mobile,36610
518,4537 Charing Cross Alley,United States,Alabama,Tuscaloosa,35487
519,664 Memorial Pass,United States,Alabama,Montgomery,36109
520,541 Bluejay Trail,United States,Alabama,Birmingham,35242
521,91 Dahle Hill,United States,Alabama,Birmingham,35205
522,76 Warbler Street,United States,Alabama,Mobile,36628
523,7003 Sugar Trail,United States,Alabama,Mobile,36670
524,3 Jackson Point,United States,Alabama,Mobile,36641
525,518 Meadow Vale Parkway,United States,Alabama,Montgomery,36109
526,3 Del Mar Trail,United States,Alabama,Huntsville,35810
527,07717 Clemons Court,United States,Alabama,Birmingham,35225
528,0348 Butternut Junction,United States,Alabama,Tuscaloosa,35405
529,1581 Fairfield Junction,United States,Alabama,Anniston,36205
530,09908 Golf Course Alley,United States,Alabama,Birmingham,35244
531,21851 Morningstar Court,United States,Alabama,Montgomery,36195
532,1831 7th Terrace,United States,Alabama,Birmingham,35242
533,7285 Maryland Alley,United States,Alabama,Montgomery,36119
534,829 Westridge Place,United States,Alabama,Mobile,36628
535,05 Holy Cross Street,United States,Alabama,Huntsville,35895
536,14 Springview Pass,United States,Alabama,Gadsden,35905
537,944 Summit Crossing,United States,Alabama,Birmingham,35236
538,6718 Ridgeview Alley,United States,Alabama,Gadsden,35905
539,7463 Hanson Parkway,United States,Alabama,Tuscaloosa,35487
540,25 7th Terrace,United States,Alabama,Mobile,36616
541,7 Fulton Park,United States,Alabama,Anniston,36205
542,86 Stoughton Circle,United States,Alabama,Mobile,36689
543,12 Sachtjen Park,United States,Alabama,Anniston,36205
544,6 7th Center,United States,Alabama,Birmingham,35205
545,938 Lindbergh Park,United States,Alabama,Huntsville,35810
546,5183 Elmside Crossing,United States,Alabama,Birmingham,35220
547,05966 Moose Avenue,United States,Alabama,Montgomery,36195
548,4442 Clemons Pass,United States,Alabama,Mobile,36616
549,45 Forest Drive,United States,Alabama,Huntsville,35895
550,21 Loomis Point,United States,Alabama,Huntsville,35805
551,5 Rigney Road,United States,Alabama,Birmingham,35225
552,3 Fair Oaks Lane,United States,Alabama,Mobile,36641
553,405 Caliangt Hill,United States,Alabama,Montgomery,36177
554,8 West Road,United States,Alabama,Birmingham,35210
555,6 Oak Valley Court,United States,Alabama,Montgomery,36195
556,77447 Bartelt Plaza,United States,Alabama,Mobile,36610
557,47 Lighthouse Bay Circle,United States,Alabama,Birmingham,35290
558,27186 Swallow Crossing,United States,Alabama,Tuscaloosa,35487
559,01281 Buell Avenue,United States,Alabama,Montgomery,36114
560,9886 Thierer Pass,United States,Alabama,Birmingham,35215
561,86656 Eggendart Parkway,United States,Alabama,Mobile,36689
562,6449 Heffernan Plaza,United States,Alabama,Birmingham,35242
563,382 Parkside Trail,United States,Alabama,Birmingham,35225
564,37071 Pennsylvania Avenue,United States,Alabama,Mobile,36628
565,95352 Lakeland Parkway,United States,Alabama,Birmingham,35279
566,0231 Sutteridge Court,United States,Alabama,Mobile,36689
567,84 Meadow Vale Way,United States,Alabama,Montgomery,36109
568,56 Helena Crossing,United States,Alabama,Birmingham,35210
569,24 Upham Lane,United States,Alabama,Birmingham,35210
570,82748 Vahlen Way,United States,Alabama,Huntsville,35895
571,09574 Jenifer Drive,United States,Alabama,Birmingham,35295
572,64113 Barnett Center,United States,Alabama,Birmingham,35242
573,08 Schurz Terrace,United States,Alabama,Montgomery,36119
574,20 Hovde Parkway,United States,Alabama,Mobile,36628
575,6 Vernon Trail,United States,Alabama,Birmingham,35285
576,0455 Harbort Pass,United States,Alabama,Mobile,36641
577,0627 Butterfield Way,United States,Alabama,Mobile,36616
578,13754 Eastwood Lane,United States,Alabama,Huntsville,35895
579,88375 Lakeland Court,United States,Alabama,Birmingham,35244
580,694 Holy Cross Terrace,United States,Alabama,Mobile,36628
581,72 Melody Trail,United States,Alabama,Birmingham,35210
582,68 Village Road,United States,Alabama,Gadsden,35905
583,5804 Beilfuss Court,United States,Alabama,Birmingham,35279
584,6678 Merrick Court,United States,Alabama,Anniston,36205
585,934 Division Junction,United States,Alabama,Birmingham,35231
586,83645 Algoma Park,United States,Alabama,Huntsville,35895
587,4585 Old Gate Way,United States,Alabama,Birmingham,35205
588,0492 Gina Crossing,United States,Alabama,Montgomery,36195
589,8 Aberg Parkway,United States,Alabama,Mobile,36616
590,63 Crowley Place,United States,Alabama,Montgomery,36125
591,3200 Valley Edge Circle,United States,Alabama,Huntsville,35895
592,07226 Autumn Leaf Pass,United States,Alabama,Mobile,36628
593,0586 Lakeland Alley,United States,Alabama,Mobile,36610
594,096 1st Court,United States,Alabama,Birmingham,35254
595,78 Heffernan Terrace,United States,Alabama,Mobile,36670
596,02631 Hazelcrest Avenue,United States,Alabama,Birmingham,35225
597,6755 Cardinal Street,United States,Alabama,Mobile,36622
598,59 Melrose Circle,United States,Alabama,Mobile,36628
599,6 Westport Avenue,United States,Alabama,Montgomery,36177
600,2137 2nd Drive,United States,Alabama,Tuscaloosa,35487
601,6047 Northwestern Circle,United States,Alabama,Birmingham,35210
602,1619 5th Parkway,United States,Alabama,Huntsville,35815
603,79 Golden Leaf Crossing,United States,Alabama,Mobile,36670
604,70 Huxley Hill,United States,Alabama,Montgomery,36104
605,7899 Wayridge Place,United States,Alabama,Birmingham,35263
606,0993 Maryland Point,United States,Alabama,Montgomery,36119
607,5 Mcguire Place,United States,Alabama,Mobile,36641
608,92133 Hauk Circle,United States,Alabama,Montgomery,36119
609,0529 Monument Trail,United States,Alabama,Mobile,36605
610,53562 Dexter Center,United States,Alabama,Birmingham,35290
611,3 Randy Street,United States,Alabama,Birmingham,35210
612,956 Loftsgordon Park,United States,Alabama,Montgomery,36109
613,618 Barby Plaza,United States,Alabama,Mobile,36670
614,061 Fair Oaks Drive,United States,Alabama,Birmingham,35236
615,2 Esch Park,United States,Alabama,Mobile,36616
616,73504 Bashford Place,United States,Alabama,Birmingham,35225
617,23656 Schiller Road,United States,Alabama,Montgomery,36109
618,40 Lillian Center,United States,Alabama,Anniston,36205
619,826 Kipling Road,United States,Alabama,Birmingham,35215
620,50 Ridge Oak Drive,United States,Alabama,Birmingham,35225
621,629 Prairieview Road,United States,Alabama,Mobile,36610
622,49738 Gateway Lane,United States,Alabama,Tuscaloosa,35487
623,62 Carberry Circle,United States,Alabama,Gadsden,35905
624,8 Sachs Way,United States,Alabama,Birmingham,35244
625,61861 Westridge Parkway,United States,Alabama,Birmingham,35210
626,09062 Green Ridge Alley,United States,Alabama,Tuscaloosa,35405
627,80 Katie Point,United States,Alabama,Birmingham,35254
628,00279 Carberry Pass,United States,Alabama,Birmingham,35236
629,5 Burning Wood Plaza,United States,Alabama,Montgomery,36195
630,2288 Reindahl Street,United States,Alabama,Mobile,36610
631,02 Harbort Plaza,United States,Alabama,Montgomery,36104
632,6945 Schiller Place,United States,Alabama,Birmingham,35285
633,763 Kensington Street,United States,Alabama,Montgomery,36177
634,3 Waxwing Lane,United States,Alabama,Birmingham,35231
635,95740 Pawling Pass,United States,Alabama,Mobile,36628
636,2 Pond Hill,United States,Alabama,Birmingham,35210
637,92 Scoville Trail,United States,Alabama,Birmingham,35215
638,09 Ridgeview Road,United States,Alabama,Mobile,36605
639,25660 Cambridge Junction,United States,Alabama,Birmingham,35225
640,0 Bunker Hill Drive,United States,Alabama,Birmingham,35285
641,0 Northland Court,United States,Alabama,Birmingham,35295
642,2394 Cottonwood Way,United States,Alabama,Mobile,36641
643,46652 Ruskin Place,United States,Alabama,Birmingham,35215
644,35 Crest Line Plaza,United States,Alabama,Birmingham,35236
645,31 Warner Court,United States,Alabama,Huntsville,35810
646,37 Division Avenue,United States,Alabama,Montgomery,36104
647,51220 East Alley,United States,Alabama,Montgomery,36109
648,0 International Place,United States,Alabama,Birmingham,35285
649,95 Mendota Parkway,United States,Alabama,Huntsville,35895
650,2 Main Lane,United States,Alabama,Montgomery,36134
651,2025 Hovde Hill,United States,Alabama,Huntsville,35815
652,8824 Melrose Pass,United States,Alabama,Montgomery,36109
653,232 Monica Trail,United States,Alabama,Birmingham,35290
654,39 Bowman Center,United States,Alabama,Birmingham,35231
655,920 Forest Circle,United States,Alabama,Mobile,36610
656,451 Hallows Center,United States,Alabama,Birmingham,35210
657,44 Farmco Lane,United States,Alabama,Mobile,36689
658,5301 Mariners Cove Point,United States,Alabama,Montgomery,36119
659,10078 Dennis Center,United States,Alabama,Montgomery,36119
660,23 Lillian Park,United States,Alabama,Huntsville,35810
661,893 Continental Plaza,United States,Alabama,Birmingham,35242
662,604 Dorton Place,United States,Alabama,Mobile,36605
663,447 Sunnyside Road,United States,Alabama,Huntsville,35810
664,78091 Drewry Road,United States,Alabama,Montgomery,36104
665,52180 Reinke Alley,United States,Alabama,Birmingham,35295
666,55748 Judy Alley,United States,Alabama,Anniston,36205
667,2665 John Wall Terrace,United States,Alabama,Birmingham,35225
668,0 Randy Road,United States,Alabama,Birmingham,35263
669,68804 Loftsgordon Park,United States,Alabama,Birmingham,35215
670,125 Shelley Center,United States,Alabama,Gadsden,35905
671,4571 Hayes Way,United States,Alabama,Birmingham,35205
672,73 Bluejay Trail,United States,Alabama,Tuscaloosa,35487
673,98 Golf View Plaza,United States,Alabama,Montgomery,36134
674,14 Texas Hill,United States,Alabama,Huntsville,35815
675,3 Del Mar Terrace,United States,Alabama,Anniston,36205
676,628 Westport Street,United States,Alabama,Birmingham,35290
677,23 Eastlawn Hill,United States,Alabama,Mobile,36610
678,738 Chinook Avenue,United States,Alabama,Birmingham,35236
679,284 Anthes Alley,United States,Alabama,Tuscaloosa,35487
680,4652 Grover Parkway,United States,Alabama,Birmingham,35205
681,4150 Hagan Trail,United States,Alabama,Mobile,36622
682,91 6th Court,United States,Alabama,Birmingham,35244
683,7378 New Castle Junction,United States,Alabama,Birmingham,35254
684,0 Memorial Trail,United States,Alabama,Birmingham,35220
685,7872 Moland Center,United States,Alabama,Montgomery,36134
686,117 Hallows Crossing,United States,Alabama,Birmingham,35244
687,88 Gerald Street,United States,Alabama,Mobile,36689
688,1 Service Trail,United States,Alabama,Birmingham,35290
689,7 Hagan Junction,United States,Alabama,Mobile,36622
690,9882 Maple Crossing,United States,Alabama,Montgomery,36177
691,0795 Vera Terrace,United States,Alabama,Mobile,36641
692,2806 Spaight Center,United States,Alabama,Mobile,36605
693,026 Arapahoe Lane,United States,Alabama,Birmingham,35231
694,9463 Stoughton Plaza,United States,Alabama,Huntsville,35815
695,85 Crescent Oaks Alley,United States,Alabama,Huntsville,35895
696,5237 Holmberg Road,United States,Alabama,Montgomery,36114
697,66848 Prentice Alley,United States,Alabama,Birmingham,35263
698,17 Loeprich Drive,United States,Alabama,Mobile,36616
699,477 Oakridge Crossing,United States,Alabama,Birmingham,35295
700,89 Dryden Hill,United States,Alabama,Mobile,36670
701,556 Packers Court,United States,Alabama,Tuscaloosa,35487
702,18658 Vahlen Crossing,United States,Alabama,Montgomery,36109
703,184 Pond Trail,United States,Alabama,Montgomery,36114
704,69 7th Lane,United States,Alabama,Birmingham,35295
705,567 Carey Alley,United States,Alabama,Huntsville,35815
706,6 Dawn Drive,United States,Alabama,Birmingham,35210
707,2000 Red Cloud Crossing,United States,Alabama,Mobile,36610
708,0336 Nevada Plaza,United States,Alabama,Huntsville,35805
709,69 Maryland Alley,United States,Alabama,Huntsville,35805
710,65 Summerview Terrace,United States,Alabama,Birmingham,35220
711,96 Schiller Pass,United States,Alabama,Birmingham,35244
712,8 Claremont Alley,United States,Alabama,Mobile,36628
713,7623 Lighthouse Bay Road,United States,Alabama,Montgomery,36109
714,26417 West Alley,United States,Alabama,Birmingham,35290
715,1668 Forest Run Point,United States,Alabama,Mobile,36616
716,62825 Waywood Terrace,United States,Alabama,Anniston,36205
717,2251 Delaware Way,United States,Alabama,Montgomery,36119
718,3804 Ruskin Trail,United States,Alabama,Birmingham,35231
719,89 Thierer Alley,United States,Alabama,Montgomery,36104
720,31 Monument Plaza,United States,Alabama,Tuscaloosa,35405
721,9 Shelley Avenue,United States,Alabama,Mobile,36670
722,92413 Butternut Trail,United States,Alabama,Montgomery,36177
723,917 Talisman Center,United States,Alabama,Birmingham,35290
724,1655 Erie Way,United States,Alabama,Montgomery,36134
725,78534 Dapin Terrace,United States,Alabama,Mobile,36641
726,436 Carberry Pass,United States,Alabama,Birmingham,35215
727,17720 Rutledge Street,United States,Alabama,Birmingham,35295
728,499 Linden Circle,United States,Alabama,Birmingham,35295
729,121 Elgar Road,United States,Alabama,Mobile,36610
730,315 Buell Pass,United States,Alabama,Birmingham,35231
731,559 Oxford Street,United States,Alabama,Birmingham,35205
732,5753 Melvin Junction,United States,Alabama,Montgomery,36119
733,984 Merry Hill,United States,Alabama,Mobile,36628
734,47 Redwing Circle,United States,Alabama,Birmingham,35220
735,334 Center Hill,United States,Alabama,Birmingham,35244
736,3964 Linden Plaza,United States,Alabama,Huntsville,35810
737,63 Golf Way,United States,Alabama,Mobile,36641
738,13760 Darwin Trail,United States,Alabama,Birmingham,35231
739,48 Hanover Trail,United States,Alabama,Mobile,36622
740,81949 Milwaukee Lane,United States,Alabama,Mobile,36616
741,1 Talisman Terrace,United States,Alabama,Montgomery,36125
742,992 Nova Hill,United States,Alabama,Tuscaloosa,35405
743,54 Menomonie Hill,United States,Alabama,Anniston,36205
744,8 Forest Dale Place,United States,Alabama,Birmingham,35285
745,185 Park Meadow Alley,United States,Alabama,Montgomery,36109
746,0 Beilfuss Center,United States,Alabama,Birmingham,35205
747,75108 Prairie Rose Park,United States,Alabama,Gadsden,35905
748,9 Kensington Crossing,United States,Alabama,Birmingham,35242
749,269 Warrior Alley,United States,Alabama,Tuscaloosa,35405
750,808 Anthes Crossing,United States,Alabama,Birmingham,35231
751,9 Cody Street,United States,Alabama,Montgomery,36125
752,68 Prentice Point,United States,Alabama,Montgomery,36104
753,75 Kingsford Place,United States,Alabama,Mobile,36622
754,67 Main Pass,United States,Alabama,Birmingham,35285
755,6491 Green Ridge Way,United States,Alabama,Birmingham,35236
756,9630 Westridge Drive,United States,Alabama,Mobile,36628
757,4632 Sutteridge Point,United States,Alabama,Huntsville,35810
758,5428 Village Green Terrace,United States,Alabama,Birmingham,35215
759,4864 Melvin Alley,United States,Alabama,Montgomery,36177
760,827 1st Circle,United States,Alabama,Birmingham,35225
761,85837 Memorial Terrace,United States,Alabama,Birmingham,35285
762,4 Elmside Lane,United States,Alabama,Birmingham,35263
763,322 Golf View Terrace,United States,Alabama,Anniston,36205
764,06 Forster Trail,United States,Alabama,Mobile,36616
765,07 Karstens Circle,United States,Alabama,Birmingham,35220
766,61389 Red Cloud Junction,United States,Alabama,Tuscaloosa,35487
767,87 Fremont Way,United States,Alabama,Tuscaloosa,35487
768,80456 Old Gate Plaza,United States,Alabama,Anniston,36205
769,468 Duke Road,United States,Alabama,Mobile,36610
770,0027 Hayes Point,United States,Alabama,Birmingham,35244
771,39390 Bonner Avenue,United States,Alabama,Montgomery,36114
772,4 Northport Way,United States,Alabama,Montgomery,36195
773,62949 Anderson Point,United States,Alabama,Montgomery,36125
774,72 Saint Paul Drive,United States,Alabama,Tuscaloosa,35487
775,56 Old Shore Lane,United States,Alabama,Anniston,36205
776,9740 Lunder Crossing,United States,Alabama,Tuscaloosa,35487
777,05 Daystar Center,United States,Alabama,Birmingham,35231
778,69277 Melvin Place,United States,Alabama,Mobile,36605
779,4208 Ridgeway Parkway,United States,Alabama,Birmingham,35263
780,249 Caliangt Court,United States,Alabama,Montgomery,36114
781,2757 Schiller Drive,United States,Alabama,Birmingham,35236
782,8 Hollow Ridge Pass,United States,Alabama,Mobile,36670
783,3877 Brentwood Street,United States,Alabama,Huntsville,35815
784,693 Scoville Center,United States,Alabama,Birmingham,35295
785,3815 Hintze Drive,United States,Alabama,Tuscaloosa,35405
786,37688 Nelson Lane,United States,Alabama,Mobile,36641
787,35 Thackeray Pass,United States,Alabama,Birmingham,35236
788,6696 Corben Circle,United States,Alabama,Tuscaloosa,35405
789,5 Dixon Road,United States,Alabama,Anniston,36205
790,4607 Jackson Lane,United States,Alabama,Montgomery,36114
791,587 Glendale Hill,United States,Alabama,Mobile,36622
792,48 Troy Court,United States,Alabama,Montgomery,36109
793,24 Wayridge Park,United States,Alabama,Montgomery,36104
794,74273 Hanson Place,United States,Alabama,Tuscaloosa,35405
795,2 Steensland Avenue,United States,Alabama,Mobile,36641
796,88 David Street,United States,Alabama,Huntsville,35895
797,512 Randy Crossing,United States,Alabama,Birmingham,35254
798,25 Claremont Center,United States,Alabama,Birmingham,35205
799,39 Marcy Point,United States,Alabama,Montgomery,36195
800,95 Maryland Point,United States,Alabama,Birmingham,35220
801,05387 Cascade Point,United States,Alabama,Mobile,36622
802,83 Dorton Parkway,United States,Alabama,Birmingham,35285
803,49281 Monica Place,United States,Alabama,Mobile,36641
804,9 Commercial Center,United States,Alabama,Mobile,36670
805,41 John Wall Terrace,United States,Alabama,Birmingham,35263
806,911 Mosinee Center,United States,Alabama,Birmingham,35254
807,50899 Eastlawn Alley,United States,Alabama,Birmingham,35242
808,0 Corscot Junction,United States,Alabama,Mobile,36622
809,7913 Erie Place,United States,Alabama,Montgomery,36109
810,98 Fieldstone Circle,United States,Alabama,Birmingham,35220
811,2264 Stoughton Plaza,United States,Alabama,Huntsville,35805
812,1 Manley Pass,United States,Alabama,Birmingham,35215
813,5 3rd Junction,United States,Alabama,Mobile,36616
814,08513 Katie Lane,United States,Alabama,Montgomery,36134
815,98710 Linden Road,United States,Alabama,Birmingham,35210
816,22161 Tennyson Point,United States,Alabama,Tuscaloosa,35405
817,45076 Birchwood Terrace,United States,Alabama,Gadsden,35905
818,4576 1st Lane,United States,Alabama,Birmingham,35263
819,121 Meadow Ridge Street,United States,Alabama,Mobile,36628
820,34 Marcy Terrace,United States,Alabama,Birmingham,35254
821,95 Dawn Plaza,United States,Alabama,Birmingham,35279
822,1 Bay Plaza,United States,Alabama,Montgomery,36134
823,82 Corben Drive,United States,Alabama,Birmingham,35244
824,6201 Old Shore Lane,United States,Alabama,Montgomery,36125
825,5945 Summerview Center,United States,Alabama,Birmingham,35244
826,8 Iowa Court,United States,Alabama,Montgomery,36177
827,70584 Sloan Park,United States,Alabama,Tuscaloosa,35487
828,59 Mandrake Lane,United States,Alabama,Gadsden,35905
829,47592 Blaine Circle,United States,Alabama,Huntsville,35805
830,340 Ohio Place,United States,Alabama,Birmingham,35263
831,3 Superior Court,United States,Alabama,Birmingham,35225
832,88 Briar Crest Point,United States,Alabama,Huntsville,35895
833,8679 Anniversary Crossing,United States,Alabama,Montgomery,36125
834,77 Vermont Alley,United States,Alabama,Birmingham,35236
835,5 David Crossing,United States,Alabama,Huntsville,35805
836,7321 Morrow Crossing,United States,Alabama,Mobile,36622
837,94590 Hovde Lane,United States,Alabama,Montgomery,36195
838,9585 North Park,United States,Alabama,Birmingham,35295
839,60 Cascade Place,United States,Alabama,Huntsville,35815
840,34 Starling Parkway,United States,Alabama,Birmingham,35295
841,82685 Dapin Parkway,United States,Alabama,Birmingham,35285
842,821 Meadow Ridge Court,United States,Alabama,Huntsville,35895
843,91870 Harbort Drive,United States,Alabama,Huntsville,35895
844,1822 Colorado Alley,United States,Alabama,Mobile,36622
845,83935 Pawling Crossing,United States,Alabama,Birmingham,35210
846,394 Bartelt Center,United States,Alabama,Birmingham,35210
847,876 Brentwood Avenue,United States,Alabama,Mobile,36605
848,49 2nd Park,United States,Alabama,Montgomery,36125
849,5724 Marcy Plaza,United States,Alabama,Mobile,36628
850,1 Lakewood Park,United States,Alabama,Mobile,36622
851,28 Rigney Road,United States,Alabama,Mobile,36616
852,4 Northwestern Drive,United States,Alabama,Mobile,36641
853,7 Rigney Court,United States,Alabama,Mobile,36622
854,03 Golden Leaf Street,United States,Alabama,Birmingham,35231
855,87586 Spenser Crossing,United States,Alabama,Birmingham,35210
856,653 Morning Avenue,United States,Alabama,Anniston,36205
857,2 Barby Road,United States,Alabama,Birmingham,35290
858,939 Pleasure Court,United States,Alabama,Birmingham,35254
859,16741 Eastlawn Crossing,United States,Alabama,Huntsville,35805
860,7 Sloan Park,United States,Alabama,Birmingham,35242
861,9 Northwestern Road,United States,Alabama,Montgomery,36109
862,0 Old Shore Avenue,United States,Alabama,Montgomery,36134
863,65 Riverside Crossing,United States,Alabama,Montgomery,36125
864,63 Westridge Parkway,United States,Alabama,Montgomery,36177
865,0 Merrick Terrace,United States,Alabama,Mobile,36605
866,052 Reinke Court,United States,Alabama,Birmingham,35290
867,980 Homewood Junction,United States,Alabama,Mobile,36622
868,90 Shasta Plaza,United States,Alabama,Tuscaloosa,35405
869,961 Swallow Point,United States,Alabama,Birmingham,35290
870,6030 Muir Hill,United States,Alabama,Birmingham,35244
871,1736 Straubel Terrace,United States,Alabama,Montgomery,36177
872,692 Logan Street,United States,Alabama,Mobile,36641
873,4 Fallview Drive,United States,Alabama,Birmingham,35290
874,3583 Melrose Terrace,United States,Alabama,Montgomery,36134
875,14 Chinook Plaza,United States,Alabama,Mobile,36689
876,2423 Shasta Hill,United States,Alabama,Huntsville,35810
877,606 Ohio Avenue,United States,Alabama,Birmingham,35244
878,3734 Crescent Oaks Street,United States,Alabama,Birmingham,35263
879,12681 Mallory Street,United States,Alabama,Mobile,36622
880,674 Schiller Parkway,United States,Alabama,Montgomery,36134
881,9892 Milwaukee Avenue,United States,Alabama,Mobile,36622
882,865 Northridge Drive,United States,Alabama,Mobile,36622
883,380 Northfield Court,United States,Alabama,Birmingham,35254
884,842 Bashford Lane,United States,Alabama,Montgomery,36125
885,7333 6th Street,United States,Alabama,Gadsden,35905
886,46554 Mitchell Center,United States,Alabama,Birmingham,35242
887,031 Schiller Terrace,United States,Alabama,Gadsden,35905
888,30 Petterle Alley,United States,Alabama,Montgomery,36114
889,40 Northland Court,United States,Alabama,Birmingham,35231
890,73 Spohn Avenue,United States,Alabama,Montgomery,36125
891,1 Roth Point,United States,Alabama,Mobile,36622
892,92 6th Avenue,United States,Alabama,Birmingham,35242
893,1 Troy Hill,United States,Alabama,Birmingham,35279
894,4269 Old Shore Street,United States,Alabama,Montgomery,36119
895,9142 Maple Parkway,United States,Alabama,Anniston,36205
896,68716 Ridgeview Pass,United States,Alabama,Montgomery,36119
897,5116 8th Road,United States,Alabama,Mobile,36622
898,12772 Lillian Park,United States,Alabama,Birmingham,35215
899,78278 Sauthoff Junction,United States,Alabama,Huntsville,35805
900,083 Washington Center,United States,Alabama,Mobile,36670
901,8 Riverside Trail,United States,Alabama,Birmingham,35290
902,81937 Chive Pass,United States,Alabama,Birmingham,35263
903,712 Helena Hill,United States,Alabama,Gadsden,35905
904,7 Kenwood Terrace,United States,Alabama,Montgomery,36177
905,8 Mandrake Crossing,United States,Alabama,Mobile,36616
906,5080 Hansons Court,United States,Alabama,Birmingham,35231
907,46935 Kingsford Junction,United States,Alabama,Mobile,36689
908,2 6th Pass,United States,Alabama,Birmingham,35215
909,713 Springs Hill,United States,Alabama,Birmingham,35242
910,021 Maple Court,United States,Alabama,Huntsville,35895
911,87 Dawn Alley,United States,Alabama,Birmingham,35242
912,93 Sommers Way,United States,Alabama,Montgomery,36109
913,883 Heath Avenue,United States,Alabama,Huntsville,35895
914,7867 Alpine Junction,United States,Alabama,Mobile,36641
915,87 Stuart Road,United States,Alabama,Huntsville,35805
916,5984 John Wall Court,United States,Alabama,Montgomery,36119
917,7 6th Court,United States,Alabama,Huntsville,35805
918,8699 Corben Way,United States,Alabama,Huntsville,35810
919,4966 Muir Alley,United States,Alabama,Tuscaloosa,35487
920,542 Hallows Road,United States,Alabama,Gadsden,35905
921,3 Orin Junction,United States,Alabama,Birmingham,35231
922,6505 Amoth Road,United States,Alabama,Birmingham,35225
923,371 Artisan Road,United States,Alabama,Birmingham,35205
924,7156 Birchwood Court,United States,Alabama,Montgomery,36134
925,0205 Kipling Circle,United States,Alabama,Birmingham,35244
926,53671 Hollow Ridge Street,United States,Alabama,Birmingham,35290
927,53 Dayton Point,United States,Alabama,Birmingham,35236
928,90 Lien Junction,United States,Alabama,Birmingham,35231
929,7325 Hoepker Point,United States,Alabama,Montgomery,36119
930,6391 Petterle Center,United States,Alabama,Birmingham,35295
931,16 Merrick Point,United States,Alabama,Montgomery,36125
932,418 Eagan Park,United States,Alabama,Birmingham,35254
933,975 Park Meadow Park,United States,Alabama,Birmingham,35290
934,0 Larry Court,United States,Alabama,Huntsville,35895
935,33 Westerfield Hill,United States,Alabama,Huntsville,35895
936,704 Fordem Place,United States,Alabama,Huntsville,35895
937,3984 Lighthouse Bay Trail,United States,Alabama,Birmingham,35295
938,9526 Killdeer Lane,United States,Alabama,Huntsville,35805
939,6009 Oakridge Park,United States,Alabama,Birmingham,35254
940,40100 Calypso Terrace,United States,Alabama,Montgomery,36125
941,165 Pierstorff Road,United States,Alabama,Birmingham,35285
942,0 Waxwing Hill,United States,Alabama,Huntsville,35895
943,813 Armistice Place,United States,Alabama,Montgomery,36177
944,3954 Talisman Terrace,United States,Alabama,Tuscaloosa,35487
945,45 Surrey Plaza,United States,Alabama,Birmingham,35279
946,7962 Acker Court,United States,Alabama,Mobile,36616
947,87 Schurz Plaza,United States,Alabama,Huntsville,35805
948,19459 Anhalt Way,United States,Alabama,Birmingham,35236
949,94325 Golf Trail,United States,Alabama,Birmingham,35205
950,153 Carpenter Pass,United States,Alabama,Montgomery,36114
951,33 Fisk Point,United States,Alabama,Huntsville,35895
952,518 Kipling Court,United States,Alabama,Montgomery,36177
953,3 Bunker Hill Park,United States,Alabama,Mobile,36628
954,6787 Mayfield Drive,United States,Alabama,Mobile,36605
955,3 Ronald Regan Avenue,United States,Alabama,Montgomery,36177
956,38 Scott Street,United States,Alabama,Mobile,36610
957,1760 Mayer Avenue,United States,Alabama,Montgomery,36114
958,9092 Sycamore Way,United States,Alabama,Tuscaloosa,35487
959,15965 Weeping Birch Junction,United States,Alabama,Tuscaloosa,35405
960,9736 Anniversary Avenue,United States,Alabama,Montgomery,36177
961,07 Hudson Drive,United States,Alabama,Mobile,36605
962,09062 Florence Parkway,United States,Alabama,Birmingham,35285
963,45 Darwin Park,United States,Alabama,Birmingham,35244
964,72 Randy Circle,United States,Alabama,Mobile,36622
965,29 Reindahl Trail,United States,Alabama,Montgomery,36195
966,908 Lukken Lane,United States,Alabama,Mobile,36689
967,25633 Troy Crossing,United States,Alabama,Birmingham,35295
968,8521 Westport Junction,United States,Alabama,Montgomery,36177
969,956 Vidon Crossing,United States,Alabama,Huntsville,35895
970,0 Victoria Alley,United States,Alabama,Montgomery,36125
971,070 Northridge Junction,United States,Alabama,Montgomery,36195
972,7511 Donald Plaza,United States,Alabama,Mobile,36641
973,72570 Welch Lane,United States,Alabama,Birmingham,35242
974,21983 Golf Crossing,United States,Alabama,Birmingham,35263
975,29 Rigney Junction,United States,Alabama,Montgomery,36125
976,4362 Paget Park,United States,Alabama,Birmingham,35236
977,9739 Maryland Circle,United States,Alabama,Birmingham,35225
978,55766 Paget Center,United States,Alabama,Montgomery,36195
979,6 Summerview Circle,United States,Alabama,Montgomery,36109
980,93275 Bultman Crossing,United States,Alabama,Birmingham,35205
981,1 Scofield Lane,United States,Alabama,Mobile,36689
982,3 Texas Plaza,United States,Alabama,Birmingham,35263
983,02 Victoria Terrace,United States,Alabama,Birmingham,35220
984,8 Butternut Place,United States,Alabama,Birmingham,35295
985,20724 Prairie Rose Place,United States,Alabama,Huntsville,35810
986,61531 Green Circle,United States,Alabama,Birmingham,35220
987,1956 Grasskamp Lane,United States,Alabama,Birmingham,35295
988,78 Village Green Crossing,United States,Alabama,Tuscaloosa,35487
989,34695 Farragut Street,United States,Alabama,Montgomery,36195
990,010 Oxford Way,United States,Alabama,Birmingham,35205
991,51 Judy Circle,United States,Alabama,Mobile,36641
992,2925 Meadow Vale Point,United States,Alabama,Montgomery,36125
993,4390 Crowley Lane,United States,Alabama,Huntsville,35805
994,51 Dakota Crossing,United States,Alabama,Huntsville,35815
995,7819 Canary Plaza,United States,Alabama,Tuscaloosa,35487
996,0 Thierer Terrace,United States,Alabama,Anniston,36205
997,250 Quincy Plaza,United States,Alabama,Birmingham,35263
998,300 Mallory Parkway,United States,Alabama,Mobile,36605
999,799 Dexter Street,United States,Alabama,Birmingham,35285
1000,8235 Harbort Court,United States,Alabama,Birmingham,35295
